CCSDS_OMM_VERS = 2.0
CREATION_DATE  = 
ORIGINATOR     = 

OBJECT_NAME    = SL-3 R/B
OBJECT_ID      = 1982-079B
CENTER_NAME    = EARTH
REF_FRAME      = TEME
TIME_SYSTEM    = UTC
MEAN_ELEMENT_THEORY = SGP/SGP4

EPOCH          = 2026-01-01T13:53:33.010656
MEAN_MOTION    = 15.23860892
ECCENTRICITY   = .00264362
INCLINATION    = 81.1476
RA_OF_ASC_NODE = 272.2727
ARG_OF_PERICENTER = 35.3409
MEAN_ANOMALY   = 324.9569

EPHEMERIS_TYPE = 0
CLASSIFICATION_TYPE = U
NORAD_CAT_ID   = 13403
ELEMENT_SET_NO = 999
REV_AT_EPOCH   = 36747
BSTAR          = .40619927E-3
MEAN_MOTION_DOT = .9922E-4
MEAN_MOTION_DDOT = 0

CCSDS_OMM_VERS = 2.0
CREATION_DATE  = 
ORIGINATOR     = 

OBJECT_NAME    = SL-14 R/B
OBJECT_ID      = 1982-092B
CENTER_NAME    = EARTH
REF_FRAME      = TEME
TIME_SYSTEM    = UTC
MEAN_ELEMENT_THEORY = SGP/SGP4

EPOCH          = 2026-01-01T14:30:08.108928
MEAN_MOTION    = 14.86578830
ECCENTRICITY   = .00207923
INCLINATION    = 82.5669
RA_OF_ASC_NODE = 204.1334
ARG_OF_PERICENTER = 159.8774
MEAN_ANOMALY   = 259.6774

EPHEMERIS_TYPE = 0
CLASSIFICATION_TYPE = U
NORAD_CAT_ID   = 13553
ELEMENT_SET_NO = 999
REV_AT_EPOCH   = 31896
BSTAR          = .10614788E-3
MEAN_MOTION_DOT = .969E-5
MEAN_MOTION_DDOT = 0

CCSDS_OMM_VERS = 2.0
CREATION_DATE  = 
ORIGINATOR     = 

OBJECT_NAME    = SL-3 R/B
OBJECT_ID      = 1983-010B
CENTER_NAME    = EARTH
REF_FRAME      = TEME
TIME_SYSTEM    = UTC
MEAN_ELEMENT_THEORY = SGP/SGP4

EPOCH          = 2026-01-01T14:33:19.070208
MEAN_MOTION    = 15.44082144
ECCENTRICITY   = .00163322
INCLINATION    = 81.1050
RA_OF_ASC_NODE = 84.3593
ARG_OF_PERICENTER = 280.3070
MEAN_ANOMALY   = 79.6332

EPHEMERIS_TYPE = 0
CLASSIFICATION_TYPE = U
NORAD_CAT_ID   = 13819
ELEMENT_SET_NO = 999
REV_AT_EPOCH   = 34758
BSTAR          = .50710936E-3
MEAN_MOTION_DOT = .23352E-3
MEAN_MOTION_DDOT = 0

CCSDS_OMM_VERS = 2.0
CREATION_DATE  = 
ORIGINATOR     = 

OBJECT_NAME    = SL-3 R/B
OBJECT_ID      = 1983-075B
CENTER_NAME    = EARTH
REF_FRAME      = TEME
TIME_SYSTEM    = UTC
MEAN_ELEMENT_THEORY = SGP/SGP4

EPOCH          = 2026-01-01T14:05:47.656032
MEAN_MOTION    = 15.36603209
ECCENTRICITY   = .0024449
INCLINATION    = 97.6103
RA_OF_ASC_NODE = 3.7435
ARG_OF_PERICENTER = 108.0559
MEAN_ANOMALY   = 252.3351

EPHEMERIS_TYPE = 0
CLASSIFICATION_TYPE = U
NORAD_CAT_ID   = 14208
ELEMENT_SET_NO = 999
REV_AT_EPOCH   = 31984
BSTAR          = .4938114E-3
MEAN_MOTION_DOT = .17756E-3
MEAN_MOTION_DDOT = 0

CCSDS_OMM_VERS = 2.0
CREATION_DATE  = 
ORIGINATOR     = 

OBJECT_NAME    = COSMOS 1536
OBJECT_ID      = 1984-013A
CENTER_NAME    = EARTH
REF_FRAME      = TEME
TIME_SYSTEM    = UTC
MEAN_ELEMENT_THEORY = SGP/SGP4

EPOCH          = 2026-01-01T12:31:09.881760
MEAN_MOTION    = 15.22799467
ECCENTRICITY   = .00149845
INCLINATION    = 82.5447
RA_OF_ASC_NODE = 174.5424
ARG_OF_PERICENTER = 154.7111
MEAN_ANOMALY   = 205.4862

EPHEMERIS_TYPE = 0
CLASSIFICATION_TYPE = U
NORAD_CAT_ID   = 14699
ELEMENT_SET_NO = 999
REV_AT_EPOCH   = 26239
BSTAR          = .48649254E-3
MEAN_MOTION_DOT = .11441E-3
MEAN_MOTION_DDOT = 0

CCSDS_OMM_VERS = 2.0
CREATION_DATE  = 
ORIGINATOR     = 

OBJECT_NAME    = SL-14 R/B
OBJECT_ID      = 1984-027B
CENTER_NAME    = EARTH
REF_FRAME      = TEME
TIME_SYSTEM    = UTC
MEAN_ELEMENT_THEORY = SGP/SGP4

EPOCH          = 2026-01-01T08:29:44.759328
MEAN_MOTION    = 14.85899386
ECCENTRICITY   = .00175326
INCLINATION    = 82.5429
RA_OF_ASC_NODE = 308.1629
ARG_OF_PERICENTER = 191.6621
MEAN_ANOMALY   = 168.4192

EPHEMERIS_TYPE = 0
CLASSIFICATION_TYPE = U
NORAD_CAT_ID   = 14820
ELEMENT_SET_NO = 999
REV_AT_EPOCH   = 23763
BSTAR          = .10429318E-3
MEAN_MOTION_DOT = .935E-5
MEAN_MOTION_DDOT = 0

CCSDS_OMM_VERS = 2.0
CREATION_DATE  = 
ORIGINATOR     = 

OBJECT_NAME    = SL-8 R/B
OBJECT_ID      = 1985-006B
CENTER_NAME    = EARTH
REF_FRAME      = TEME
TIME_SYSTEM    = UTC
MEAN_ELEMENT_THEORY = SGP/SGP4

EPOCH          = 2026-01-01T12:32:11.584320
MEAN_MOTION    = 14.37735961
ECCENTRICITY   = .0019497
INCLINATION    = 74.0458
RA_OF_ASC_NODE = 24.7363
ARG_OF_PERICENTER = 313.1945
MEAN_ANOMALY   = 157.8188

EPHEMERIS_TYPE = 0
CLASSIFICATION_TYPE = U
NORAD_CAT_ID   = 15483
ELEMENT_SET_NO = 999
REV_AT_EPOCH   = 14437
BSTAR          = .1946368E-3
MEAN_MOTION_DOT = .56E-5
MEAN_MOTION_DDOT = 0

CCSDS_OMM_VERS = 2.0
CREATION_DATE  = 
ORIGINATOR     = 

OBJECT_NAME    = SL-12 R/B(2)
OBJECT_ID      = 1985-042D
CENTER_NAME    = EARTH
REF_FRAME      = TEME
TIME_SYSTEM    = UTC
MEAN_ELEMENT_THEORY = SGP/SGP4

EPOCH          = 2026-01-01T13:47:43.590912
MEAN_MOTION    = 14.21958449
ECCENTRICITY   = .00370435
INCLINATION    = 71.1066
RA_OF_ASC_NODE = 229.5176
ARG_OF_PERICENTER = 232.3110
MEAN_ANOMALY   = 142.7759

EPHEMERIS_TYPE = 0
CLASSIFICATION_TYPE = U
NORAD_CAT_ID   = 15772
ELEMENT_SET_NO = 999
REV_AT_EPOCH   = 10485
BSTAR          = .10696592E-3
MEAN_MOTION_DOT = .19E-5
MEAN_MOTION_DDOT = 0

CCSDS_OMM_VERS = 2.0
CREATION_DATE  = 
ORIGINATOR     = 

OBJECT_NAME    = SL-14 R/B
OBJECT_ID      = 1985-069B
CENTER_NAME    = EARTH
REF_FRAME      = TEME
TIME_SYSTEM    = UTC
MEAN_ELEMENT_THEORY = SGP/SGP4

EPOCH          = 2026-01-01T15:05:06.837504
MEAN_MOTION    = 14.86351042
ECCENTRICITY   = .00200593
INCLINATION    = 82.5271
RA_OF_ASC_NODE = 88.0059
ARG_OF_PERICENTER = 57.2805
MEAN_ANOMALY   = 303.0342

EPHEMERIS_TYPE = 0
CLASSIFICATION_TYPE = U
NORAD_CAT_ID   = 15945
ELEMENT_SET_NO = 999
REV_AT_EPOCH   = 16287
BSTAR          = .10785776E-3
MEAN_MOTION_DOT = .978E-5
MEAN_MOTION_DDOT = 0

CCSDS_OMM_VERS = 2.0
CREATION_DATE  = 
ORIGINATOR     = 

OBJECT_NAME    = SL-16 R/B
OBJECT_ID      = 1985-097B
CENTER_NAME    = EARTH
REF_FRAME      = TEME
TIME_SYSTEM    = UTC
MEAN_ELEMENT_THEORY = SGP/SGP4

EPOCH          = 2026-01-01T04:57:59.957280
MEAN_MOTION    = 14.16586725
ECCENTRICITY   = .00078406
INCLINATION    = 71.0030
RA_OF_ASC_NODE = 282.6202
ARG_OF_PERICENTER = 341.7410
MEAN_ANOMALY   = 124.1105

EPHEMERIS_TYPE = 0
CLASSIFICATION_TYPE = U
NORAD_CAT_ID   = 16182
ELEMENT_SET_NO = 999
REV_AT_EPOCH   = 7767
BSTAR          = .41447241E-4
MEAN_MOTION_DOT = .35E-6
MEAN_MOTION_DDOT = 0

CCSDS_OMM_VERS = 2.0
CREATION_DATE  = 
ORIGINATOR     = 

OBJECT_NAME    = SL-14 R/B
OBJECT_ID      = 1986-006B
CENTER_NAME    = EARTH
REF_FRAME      = TEME
TIME_SYSTEM    = UTC
MEAN_ELEMENT_THEORY = SGP/SGP4

EPOCH          = 2026-01-01T08:28:45.189984
MEAN_MOTION    = 14.86700788
ECCENTRICITY   = .0077796
INCLINATION    = 82.5279
RA_OF_ASC_NODE = 323.0964
ARG_OF_PERICENTER = 135.0477
MEAN_ANOMALY   = 225.7075

EPHEMERIS_TYPE = 0
CLASSIFICATION_TYPE = U
NORAD_CAT_ID   = 16496
ELEMENT_SET_NO = 999
REV_AT_EPOCH   = 13920
BSTAR          = .1180063E-3
MEAN_MOTION_DOT = .1136E-4
MEAN_MOTION_DDOT = 0

CCSDS_OMM_VERS = 2.0
CREATION_DATE  = 
ORIGINATOR     = 

OBJECT_NAME    = COSMOS 1743
OBJECT_ID      = 1986-034A
CENTER_NAME    = EARTH
REF_FRAME      = TEME
TIME_SYSTEM    = UTC
MEAN_ELEMENT_THEORY = SGP/SGP4

EPOCH          = 2026-01-01T10:32:16.840320
MEAN_MOTION    = 15.53449837
ECCENTRICITY   = .00050325
INCLINATION    = 82.5349
RA_OF_ASC_NODE = 144.1126
ARG_OF_PERICENTER = 174.7017
MEAN_ANOMALY   = 185.4290

EPHEMERIS_TYPE = 0
CLASSIFICATION_TYPE = U
NORAD_CAT_ID   = 16719
ELEMENT_SET_NO = 999
REV_AT_EPOCH   = 16979
BSTAR          = .65960655E-3
MEAN_MOTION_DOT = .41991E-3
MEAN_MOTION_DDOT = 0

