SL-3 R/B                
1 13403U 82079B   26001.57885429  .00009922  00000+0  40620-3 0  9990
2 13403  81.1476 272.2727 0026436  35.3409 324.9569 15.23860892367473
SL-14 R/B               
1 13553U 82092B   26001.60426052  .00000969  00000+0  10615-3 0  9991
2 13553  82.5669 204.1334 0020792 159.8774 259.6774 14.86578830318960
SL-3 R/B                
1 13819U 83010B   26001.60647072  .00023352  00000+0  50711-3 0  9996
2 13819  81.1050  84.3593 0016332 280.3070  79.6332 15.44082144347586
SL-3 R/B                
1 14208U 83075B   26001.58735713  .00017756  00000+0  49381-3 0  9999
2 14208  97.6103   3.7435 0024449 108.0559 252.3351 15.36603209319847
COSMOS 1536             
1 14699U 84013A   26001.52164215  .00011441  00000+0  48649-3 0  9994
2 14699  82.5447 174.5424 0014984 154.7111 205.4862 15.22799467262395
SL-14 R/B               
1 14820U 84027B   26001.35399027  .00000935  00000+0  10429-3 0  9998
2 14820  82.5429 308.1629 0017532 191.6621 168.4192 14.85899386237633
SL-8 R/B                
1 15483U 85006B   26001.52235630  .00000560  00000+0  19464-3 0  9992
2 15483  74.0458  24.7363 0019497 313.1945 157.8188 14.37735961144375
SL-12 R/B(2)            
1 15772U 85042D   26001.57481008  .00000190  00000+0  10697-3 0  9998
2 15772  71.1066 229.5176 0037043 232.3110 142.7759 14.21958449104856
SL-14 R/B               
1 15945U 85069B   26001.62855136  .00000978  00000+0  10786-3 0  9995
2 15945  82.5271  88.0059 0020059  57.2805 303.0342 14.86351042162877
SL-16 R/B               
1 16182U 85097B   26001.20694395  .00000035  00000+0  41447-4 0  9995
2 16182  71.0030 282.6202 0007840 341.7410 124.1105 14.16586725 77678
SL-14 R/B               
1 16496U 86006B   26001.35330081  .00001136  00000+0  11801-3 0  9992
2 16496  82.5279 323.0964 0077796 135.0477 225.7075 14.86700788139203
COSMOS 1743             
1 16719U 86034A   26001.43908380  .00041991  00000+0  65961-3 0  9992
2 16719  82.5349 144.1126 0005032 174.7017 185.4290 15.53449837169793
